[{"OBJECT_NAME":"STARLINK-36203","OBJECT_ID":"2025-304Y","EPOCH":"2026-03-09T17:06:21.145536","MEAN_MOTION":14.98333151,"ECCENTRICITY":0.00041027,"INCLINATION":70.0025,"RA_OF_ASC_NODE":174.5769,"ARG_OF_PERICENTER":269.7845,"MEAN_ANOMALY":90.2844,"EPHEMERIS_TYPE":0,"CLASSIFICATION_TYPE":"U","NORAD_CAT_ID":67214,"ELEMENT_SET_NO":999,"REV_AT_EPOCH":1388,"BSTAR":0.00025089014,"MEAN_MOTION_DOT":2.902e-5,"MEAN_MOTION_DDOT":0},{"OBJECT_NAME":"D-SAT","OBJECT_ID":"2017-036AF","EPOCH":"2026-03-09T22:00:14.910336","MEAN_MOTION":15.15529522,"ECCENTRICITY":0.00852401,"INCLINATION":97.5487,"RA_OF_ASC_NODE":48.252,"ARG_OF_PERICENTER":144.4633,"MEAN_ANOMALY":216.2319,"EPHEMERIS_TYPE":0,"CLASSIFICATION_TYPE":"U","NORAD_CAT_ID":42794,"ELEMENT_SET_NO":999,"REV_AT_EPOCH":47581,"BSTAR":0.00038655305,"MEAN_MOTION_DOT":7.964e-5,"MEAN_MOTION_DDOT":0}]
